[{"OBJECT_NAME":"ION SCV-018","OBJECT_ID":"2025-135AZ","EPOCH":"2026-03-09T20:46:52.870080","MEAN_MOTION":14.94433361,"ECCENTRICITY":0.00112281,"INCLINATION":97.7645,"RA_OF_ASC_NODE":184.9218,"ARG_OF_PERICENTER":262.207,"MEAN_ANOMALY":97.7875,"EPHEMERIS_TYPE":0,"CLASSIFICATION_TYPE":"U","NORAD_CAT_ID":64575,"ELEMENT_SET_NO":999,"REV_AT_EPOCH":3909,"BSTAR":0.00019355798,"MEAN_MOTION_DOT":2.03e-5,"MEAN_MOTION_DDOT":0},{"OBJECT_NAME":"AE2A","OBJECT_ID":"2025-135BR","EPOCH":"2026-03-09T22:31:40.668960","MEAN_MOTION":14.96072328,"ECCENTRICITY":0.00037442,"INCLINATION":97.7564,"RA_OF_ASC_NODE":184.9238,"ARG_OF_PERICENTER":309.3456,"MEAN_ANOMALY":50.7433,"EPHEMERIS_TYPE":0,"CLASSIFICATION_TYPE":"U","NORAD_CAT_ID":64591,"ELEMENT_SET_NO":999,"REV_AT_EPOCH":3911,"BSTAR":0.00073209812,"MEAN_MOTION_DOT":8.175e-5,"MEAN_MOTION_DDOT":0}]
